IRIDIUM 159             
1 43578U 18061K   24174.03224984  .00000075  00000+0  19730-4 0  9998
2 43578  86.3971 359.7562 0002074  82.3831 277.7600 14.34217605309440
IRIDIUM 180             
1 43922U 19002A   24173.89221016  .00000010  00000+0 -34301-5 0  9995
2 43922  86.3959 296.6940 0001975  92.7451 267.3971 14.34217587285033
IRIDIUM 176             
1 43923U 19002B   24173.39982103  .00001079  00000+0  16725-3 0  9995
2 43923  86.6089 296.9211 0002458  87.9522 272.1976 14.72255506292466
IRIDIUM 168             
1 43924U 19002C   24173.88586838  .00000036  00000+0  57171-5 0  9999
2 43924  86.3964 296.7533 0002301  93.0025 267.1434 14.34217300285018
IRIDIUM 173             
1 43925U 19002D   24173.87318223  .00000114  00000+0  33755-4 0  9998
2 43925  86.3959 296.6771 0002124  90.7694 269.3745 14.34218133284995
IRIDIUM 169             
1 43926U 19002E   24173.92484218  .00000459  00000+0  14371-3 0  9997
2 43926  86.4224 328.2829 0001899 153.2010 206.9286 14.38609069285953
IRIDIUM 172             
1 43927U 19002F   24173.86684020 -.00000009  00000+0 -10268-4 0  9999
2 43927  86.3958 296.6857 0002130  91.0150 269.1290 14.34217439285003
IRIDIUM 175             
1 43928U 19002G   24174.20975424  .00001342  00000+0  20891-3 0  9991
2 43928  86.1507 269.4369 0001946 100.1201 260.0235 14.72243580292578
